[
  {
    "eventName": "Filled Name",
    "eventStart": "Jan 12, 2024",
    "eventEnd": "Jan 14, 2024",
    "clientName": "Muhammad Asad",
    "contactInfo": "+123 456 7890",
    "venue": "Lorem ipsum dolor sit amet.",
    "city": "-",
    "state": "-",
    "zipCode": "-"
  },
  {
    "eventName": "Filled Name",
    "eventStart": "Jan 12, 2024",
    "eventEnd": "Jan 14, 2024",
    "clientName": "Muhammad Asad",
    "contactInfo": "+123 456 7890",
    "venue": "Lorem ipsum dolor sit amet.",
    "city": "-",
    "state": "-",
    "zipCode": "-"
  },
  {
    "eventName": "Filled Name",
    "eventStart": "Jan 12, 2024",
    "eventEnd": "Jan 14, 2024",
    "clientName": "Muhammad Asad",
    "contactInfo": "+123 456 7890",
    "venue": "Lorem ipsum dolor sit amet.",
    "city": "-",
    "state": "-",
    "zipCode": "-"
  },
  {
    "eventName": "Filled Name",
    "eventStart": "Jan 12, 2024",
    "eventEnd": "Jan 14, 2024",
    "clientName": "Muhammad Asad",
    "contactInfo": "+123 456 7890",
    "venue": "Lorem ipsum dolor sit amet.",
    "city": "-",
    "state": "-",
    "zipCode": "-"
  },
  {
    "eventName": "Filled Name",
    "eventStart": "Jan 12, 2024",
    "eventEnd": "Jan 14, 2024",
    "clientName": "Muhammad Asad",
    "contactInfo": "+123 456 7890",
    "venue": "Lorem ipsum dolor sit amet.",
    "city": "-",
    "state": "-",
    "zipCode": "-"
  },
  {
    "eventName": "Filled Name",
    "eventStart": "Jan 12, 2024",
    "eventEnd": "Jan 14, 2024",
    "clientName": "Muhammad Asad",
    "contactInfo": "+123 456 7890",
    "venue": "Lorem ipsum dolor sit amet.",
    "city": "-",
    "state": "-",
    "zipCode": "-"
  },
  {
    "eventName": "Filled Name",
    "eventStart": "Jan 12, 2024",
    "eventEnd": "Jan 14, 2024",
    "clientName": "Muhammad Asad",
    "contactInfo": "+123 456 7890",
    "venue": "Lorem ipsum dolor sit amet.",
    "city": "-",
    "state": "-",
    "zipCode": "-"
  },
  {
    "eventName": "Filled Name",
    "eventStart": "Jan 12, 2024",
    "eventEnd": "Jan 14, 2024",
    "clientName": "Muhammad Asad",
    "contactInfo": "+123 456 7890",
    "venue": "Lorem ipsum dolor sit amet.",
    "city": "-",
    "state": "-",
    "zipCode": "-"
  },
  {
    "eventName": "Filled Name",
    "eventStart": "Jan 12, 2024",
    "eventEnd": "Jan 14, 2024",
    "clientName": "Muhammad Asad",
    "contactInfo": "+123 456 7890",
    "venue": "Lorem ipsum dolor sit amet.",
    "city": "-",
    "state": "-",
    "zipCode": "-"
  },
  {
    "eventName": "Filled Name",
    "eventStart": "Jan 12, 2024",
    "eventEnd": "Jan 14, 2024",
    "clientName": "Muhammad Asad",
    "contactInfo": "+123 456 7890",
    "venue": "Lorem ipsum dolor sit amet.",
    "city": "-",
    "state": "-",
    "zipCode": "-"
  },
  {
    "eventName": "Filled Name",
    "eventStart": "Jan 12, 2024",
    "eventEnd": "Jan 14, 2024",
    "clientName": "Muhammad Asad",
    "contactInfo": "+123 456 7890",
    "venue": "Lorem ipsum dolor sit amet.",
    "city": "-",
    "state": "-",
    "zipCode": "-"
  },
  {
    "eventName": "Filled Name",
    "eventStart": "Jan 12, 2024",
    "eventEnd": "Jan 14, 2024",
    "clientName": "Muhammad Asad",
    "contactInfo": "+123 456 7890",
    "venue": "Lorem ipsum dolor sit amet.",
    "city": "-",
    "state": "-",
    "zipCode": "-"
  },
  {
    "eventName": "Filled Name",
    "eventStart": "Jan 12, 2024",
    "eventEnd": "Jan 14, 2024",
    "clientName": "Muhammad Asad",
    "contactInfo": "+123 456 7890",
    "venue": "Lorem ipsum dolor sit amet.",
    "city": "-",
    "state": "-",
    "zipCode": "-"
  },
  {
    "eventName": "Filled Name",
    "eventStart": "Jan 12, 2024",
    "eventEnd": "Jan 14, 2024",
    "clientName": "Muhammad Asad",
    "contactInfo": "+123 456 7890",
    "venue": "Lorem ipsum dolor sit amet.",
    "city": "-",
    "state": "-",
    "zipCode": "-"
  },
  {
    "eventName": "Filled Name",
    "eventStart": "Jan 12, 2024",
    "eventEnd": "Jan 14, 2024",
    "clientName": "Muhammad Asad",
    "contactInfo": "+123 456 7890",
    "venue": "Lorem ipsum dolor sit amet.",
    "city": "-",
    "state": "-",
    "zipCode": "-"
  },
  {
    "eventName": "Filled Name",
    "eventStart": "Jan 12, 2024",
    "eventEnd": "Jan 14, 2024",
    "clientName": "Muhammad Asad",
    "contactInfo": "+123 456 7890",
    "venue": "Lorem ipsum dolor sit amet.",
    "city": "-",
    "state": "-",
    "zipCode": "-"
  },
  {
    "eventName": "Filled Name",
    "eventStart": "Jan 12, 2024",
    "eventEnd": "Jan 14, 2024",
    "clientName": "Muhammad Asad",
    "contactInfo": "+123 456 7890",
    "venue": "Lorem ipsum dolor sit amet.",
    "city": "-",
    "state": "-",
    "zipCode": "-"
  },
  {
    "eventName": "Filled Name",
    "eventStart": "Jan 12, 2024",
    "eventEnd": "Jan 14, 2024",
    "clientName": "Muhammad Asad",
    "contactInfo": "+123 456 7890",
    "venue": "Lorem ipsum dolor sit amet.",
    "city": "-",
    "state": "-",
    "zipCode": "-"
  },
  {
    "eventName": "Filled Name",
    "eventStart": "Jan 12, 2024",
    "eventEnd": "Jan 14, 2024",
    "clientName": "Muhammad Asad",
    "contactInfo": "+123 456 7890",
    "venue": "Lorem ipsum dolor sit amet.",
    "city": "-",
    "state": "-",
    "zipCode": "-"
  },
  {
    "eventName": "Filled Name",
    "eventStart": "Jan 12, 2024",
    "eventEnd": "Jan 14, 2024",
    "clientName": "Muhammad Asad",
    "contactInfo": "+123 456 7890",
    "venue": "Lorem ipsum dolor sit amet.",
    "city": "-",
    "state": "-",
    "zipCode": "-"
  },
  {
    "eventName": "Filled Name",
    "eventStart": "Jan 12, 2024",
    "eventEnd": "Jan 14, 2024",
    "clientName": "Muhammad Asad",
    "contactInfo": "+123 456 7890",
    "venue": "Lorem ipsum dolor sit amet.",
    "city": "-",
    "state": "-",
    "zipCode": "-"
  },
  {
    "eventName": "Filled Name",
    "eventStart": "Jan 12, 2024",
    "eventEnd": "Jan 14, 2024",
    "clientName": "Muhammad Asad",
    "contactInfo": "+123 456 7890",
    "venue": "Lorem ipsum dolor sit amet.",
    "city": "-",
    "state": "-",
    "zipCode": "-"
  },
  {
    "eventName": "Filled Name",
    "eventStart": "Jan 12, 2024",
    "eventEnd": "Jan 14, 2024",
    "clientName": "Muhammad Asad",
    "contactInfo": "+123 456 7890",
    "venue": "Lorem ipsum dolor sit amet.",
    "city": "-",
    "state": "-",
    "zipCode": "-"
  },
  {
    "eventName": "Filled Name",
    "eventStart": "Jan 12, 2024",
    "eventEnd": "Jan 14, 2024",
    "clientName": "Muhammad Asad",
    "contactInfo": "+123 456 7890",
    "venue": "Lorem ipsum dolor sit amet.",
    "city": "-",
    "state": "-",
    "zipCode": "-"
  },
  {
    "eventName": "Filled Name",
    "eventStart": "Jan 12, 2024",
    "eventEnd": "Jan 14, 2024",
    "clientName": "Muhammad Asad",
    "contactInfo": "+123 456 7890",
    "venue": "Lorem ipsum dolor sit amet.",
    "city": "-",
    "state": "-",
    "zipCode": "-"
  },
  {
    "eventName": "Filled Name",
    "eventStart": "Jan 12, 2024",
    "eventEnd": "Jan 14, 2024",
    "clientName": "Muhammad Asad",
    "contactInfo": "+123 456 7890",
    "venue": "Lorem ipsum dolor sit amet.",
    "city": "-",
    "state": "-",
    "zipCode": "-"
  },
  {
    "eventName": "Filled Name",
    "eventStart": "Jan 12, 2024",
    "eventEnd": "Jan 14, 2024",
    "clientName": "Muhammad Asad",
    "contactInfo": "+123 456 7890",
    "venue": "Lorem ipsum dolor sit amet.",
    "city": "-",
    "state": "-",
    "zipCode": "-"
  },
  {
    "eventName": "Filled Name",
    "eventStart": "Jan 12, 2024",
    "eventEnd": "Jan 14, 2024",
    "clientName": "Muhammad Asad",
    "contactInfo": "+123 456 7890",
    "venue": "Lorem ipsum dolor sit amet.",
    "city": "-",
    "state": "-",
    "zipCode": "-"
  },
  {
    "eventName": "Filled Name",
    "eventStart": "Jan 12, 2024",
    "eventEnd": "Jan 14, 2024",
    "clientName": "Muhammad Asad",
    "contactInfo": "+123 456 7890",
    "venue": "Lorem ipsum dolor sit amet.",
    "city": "-",
    "state": "-",
    "zipCode": "-"
  },
  {
    "eventName": "Filled Name",
    "eventStart": "Jan 12, 2024",
    "eventEnd": "Jan 14, 2024",
    "clientName": "Muhammad Asad",
    "contactInfo": "+123 456 7890",
    "venue": "Lorem ipsum dolor sit amet.",
    "city": "-",
    "state": "-",
    "zipCode": "-"
  },
  {
    "eventName": "Filled Name",
    "eventStart": "Jan 12, 2024",
    "eventEnd": "Jan 14, 2024",
    "clientName": "Muhammad Asad",
    "contactInfo": "+123 456 7890",
    "venue": "Lorem ipsum dolor sit amet.",
    "city": "-",
    "state": "-",
    "zipCode": "-"
  },
  {
    "eventName": "Filled Name",
    "eventStart": "Jan 12, 2024",
    "eventEnd": "Jan 14, 2024",
    "clientName": "Muhammad Asad",
    "contactInfo": "+123 456 7890",
    "venue": "Lorem ipsum dolor sit amet.",
    "city": "-",
    "state": "-",
    "zipCode": "-"
  },
  {
    "eventName": "Filled Name",
    "eventStart": "Jan 12, 2024",
    "eventEnd": "Jan 14, 2024",
    "clientName": "Muhammad Asad",
    "contactInfo": "+123 456 7890",
    "venue": "Lorem ipsum dolor sit amet.",
    "city": "-",
    "state": "-",
    "zipCode": "-"
  },
  {
    "eventName": "Filled Name",
    "eventStart": "Jan 12, 2024",
    "eventEnd": "Jan 14, 2024",
    "clientName": "Muhammad Asad",
    "contactInfo": "+123 456 7890",
    "venue": "Lorem ipsum dolor sit amet.",
    "city": "-",
    "state": "-",
    "zipCode": "-"
  },
  {
    "eventName": "Filled Name",
    "eventStart": "Jan 12, 2024",
    "eventEnd": "Jan 14, 2024",
    "clientName": "Muhammad Asad",
    "contactInfo": "+123 456 7890",
    "venue": "Lorem ipsum dolor sit amet.",
    "city": "-",
    "state": "-",
    "zipCode": "-"
  },
  {
    "eventName": "Filled Name",
    "eventStart": "Jan 12, 2024",
    "eventEnd": "Jan 14, 2024",
    "clientName": "Muhammad Asad",
    "contactInfo": "+123 456 7890",
    "venue": "Lorem ipsum dolor sit amet.",
    "city": "-",
    "state": "-",
    "zipCode": "-"
  }
]
